CCSDS_OMM_VERS = 2.0
CREATION_DATE  = 
ORIGINATOR     = 

OBJECT_NAME    = STARLINK-36534
OBJECT_ID      = 2026-012D
CENTER_NAME    = EARTH
REF_FRAME      = TEME
TIME_SYSTEM    = UTC
MEAN_ELEMENT_THEORY = SGP/SGP4

EPOCH          = 2026-02-14T12:00:01.999296
MEAN_MOTION    = 15.41119151
ECCENTRICITY   = .0000602
INCLINATION    = 43.0010
RA_OF_ASC_NODE = 85.7485
ARG_OF_PERICENTER = 296.3005
MEAN_ANOMALY   = 327.0151

EPHEMERIS_TYPE = 0
CLASSIFICATION_TYPE = U
NORAD_CAT_ID   = 67496
ELEMENT_SET_NO = 999
REV_AT_EPOCH   = 528
BSTAR          = -.46022E-1
MEAN_MOTION_DOT = -.1761131E-1
MEAN_MOTION_DDOT = 0

CCSDS_OMM_VERS = 2.0
CREATION_DATE  = 
ORIGINATOR     = 

OBJECT_NAME    = STARLINK-36555
OBJECT_ID      = 2026-012E
CENTER_NAME    = EARTH
REF_FRAME      = TEME
TIME_SYSTEM    = UTC
MEAN_ELEMENT_THEORY = SGP/SGP4

EPOCH          = 2026-02-14T12:00:01.999296
MEAN_MOTION    = 15.40784233
ECCENTRICITY   = .0000946
INCLINATION    = 43.0001
RA_OF_ASC_NODE = 85.7739
ARG_OF_PERICENTER = 292.0721
MEAN_ANOMALY   = 321.2859

EPHEMERIS_TYPE = 0
CLASSIFICATION_TYPE = U
NORAD_CAT_ID   = 67497
ELEMENT_SET_NO = 999
REV_AT_EPOCH   = 534
BSTAR          = -.48891E-1
MEAN_MOTION_DOT = -.1841291E-1
MEAN_MOTION_DDOT = 0

CCSDS_OMM_VERS = 2.0
CREATION_DATE  = 
ORIGINATOR     = 

OBJECT_NAME    = STARLINK-36081
OBJECT_ID      = 2026-012F
CENTER_NAME    = EARTH
REF_FRAME      = TEME
TIME_SYSTEM    = UTC
MEAN_ELEMENT_THEORY = SGP/SGP4

EPOCH          = 2026-02-14T11:11:44.177856
MEAN_MOTION    = 15.50880949
ECCENTRICITY   = .0009691
INCLINATION    = 43.0006
RA_OF_ASC_NODE = 86.1289
ARG_OF_PERICENTER = 299.5166
MEAN_ANOMALY   = 60.4728

EPHEMERIS_TYPE = 0
CLASSIFICATION_TYPE = U
NORAD_CAT_ID   = 67498
ELEMENT_SET_NO = 999
REV_AT_EPOCH   = 420
BSTAR          = .12399E-2
MEAN_MOTION_DOT = .74005E-3
MEAN_MOTION_DDOT = 0

CCSDS_OMM_VERS = 2.0
CREATION_DATE  = 
ORIGINATOR     = 

OBJECT_NAME    = STARLINK-36558
OBJECT_ID      = 2026-012G
CENTER_NAME    = EARTH
REF_FRAME      = TEME
TIME_SYSTEM    = UTC
MEAN_ELEMENT_THEORY = SGP/SGP4

EPOCH          = 2026-02-14T09:38:51.290592
MEAN_MOTION    = 15.50261505
ECCENTRICITY   = .000579
INCLINATION    = 43.0033
RA_OF_ASC_NODE = 86.5014
ARG_OF_PERICENTER = 244.1148
MEAN_ANOMALY   = 115.9116

EPHEMERIS_TYPE = 0
CLASSIFICATION_TYPE = U
NORAD_CAT_ID   = 67499
ELEMENT_SET_NO = 999
REV_AT_EPOCH   = 419
BSTAR          = .22314E-2
MEAN_MOTION_DOT = .131354E-2
MEAN_MOTION_DDOT = 0

CCSDS_OMM_VERS = 2.0
CREATION_DATE  = 
ORIGINATOR     = 

OBJECT_NAME    = STARLINK-36557
OBJECT_ID      = 2026-012H
CENTER_NAME    = EARTH
REF_FRAME      = TEME
TIME_SYSTEM    = UTC
MEAN_ELEMENT_THEORY = SGP/SGP4

EPOCH          = 2026-02-14T12:00:01.999296
MEAN_MOTION    = 15.39161655
ECCENTRICITY   = .0000949
INCLINATION    = 43.0004
RA_OF_ASC_NODE = 85.5390
ARG_OF_PERICENTER = 269.5043
MEAN_ANOMALY   = 78.7040

EPHEMERIS_TYPE = 0
CLASSIFICATION_TYPE = U
NORAD_CAT_ID   = 67500
ELEMENT_SET_NO = 999
REV_AT_EPOCH   = 534
BSTAR          = -.48873E-1
MEAN_MOTION_DOT = -.1753069E-1
MEAN_MOTION_DDOT = 0

CCSDS_OMM_VERS = 2.0
CREATION_DATE  = 
ORIGINATOR     = 

OBJECT_NAME    = STARLINK-36433
OBJECT_ID      = 2026-012J
CENTER_NAME    = EARTH
REF_FRAME      = TEME
TIME_SYSTEM    = UTC
MEAN_ELEMENT_THEORY = SGP/SGP4

EPOCH          = 2026-02-14T12:00:01.999296
MEAN_MOTION    = 15.39550623
ECCENTRICITY   = .0001397
INCLINATION    = 43.0003
RA_OF_ASC_NODE = 85.4945
ARG_OF_PERICENTER = 268.9751
MEAN_ANOMALY   = 96.7505

EPHEMERIS_TYPE = 0
CLASSIFICATION_TYPE = U
NORAD_CAT_ID   = 67501
ELEMENT_SET_NO = 999
REV_AT_EPOCH   = 534
BSTAR          = -.50278E-1
MEAN_MOTION_DOT = -.1819782E-1
MEAN_MOTION_DDOT = 0

CCSDS_OMM_VERS = 2.0
CREATION_DATE  = 
ORIGINATOR     = 

OBJECT_NAME    = STARLINK-36554
OBJECT_ID      = 2026-012K
CENTER_NAME    = EARTH
REF_FRAME      = TEME
TIME_SYSTEM    = UTC
MEAN_ELEMENT_THEORY = SGP/SGP4

EPOCH          = 2026-02-14T12:18:14.173056
MEAN_MOTION    = 15.47647950
ECCENTRICITY   = .000158
INCLINATION    = 42.9999
RA_OF_ASC_NODE = 85.6081
ARG_OF_PERICENTER = 319.9064
MEAN_ANOMALY   = 40.1679

EPHEMERIS_TYPE = 0
CLASSIFICATION_TYPE = U
NORAD_CAT_ID   = 67502
ELEMENT_SET_NO = 999
REV_AT_EPOCH   = 421
BSTAR          = .17967E-2
MEAN_MOTION_DOT = .95915E-3
MEAN_MOTION_DDOT = 0

CCSDS_OMM_VERS = 2.0
CREATION_DATE  = 
ORIGINATOR     = 

OBJECT_NAME    = STARLINK-36552
OBJECT_ID      = 2026-012L
CENTER_NAME    = EARTH
REF_FRAME      = TEME
TIME_SYSTEM    = UTC
MEAN_ELEMENT_THEORY = SGP/SGP4

EPOCH          = 2026-02-14T12:00:01.999296
MEAN_MOTION    = 15.40587967
ECCENTRICITY   = .0001579
INCLINATION    = 43.0012
RA_OF_ASC_NODE = 85.3809
ARG_OF_PERICENTER = 280.9189
MEAN_ANOMALY   = 130.4180

EPHEMERIS_TYPE = 0
CLASSIFICATION_TYPE = U
NORAD_CAT_ID   = 67503
ELEMENT_SET_NO = 999
REV_AT_EPOCH   = 534
BSTAR          = -.4995E-1
MEAN_MOTION_DOT = -.1866386E-1
MEAN_MOTION_DDOT = 0

CCSDS_OMM_VERS = 2.0
CREATION_DATE  = 
ORIGINATOR     = 

OBJECT_NAME    = STARLINK-36512
OBJECT_ID      = 2026-012M
CENTER_NAME    = EARTH
REF_FRAME      = TEME
TIME_SYSTEM    = UTC
MEAN_ELEMENT_THEORY = SGP/SGP4

EPOCH          = 2026-02-14T12:00:01.999296
MEAN_MOTION    = 15.44987380
ECCENTRICITY   = .0001383
INCLINATION    = 43.0011
RA_OF_ASC_NODE = 85.4296
ARG_OF_PERICENTER = 281.8932
MEAN_ANOMALY   = 109.9484

EPHEMERIS_TYPE = 0
CLASSIFICATION_TYPE = U
NORAD_CAT_ID   = 67504
ELEMENT_SET_NO = 999
REV_AT_EPOCH   = 534
BSTAR          = -.43399E-1
MEAN_MOTION_DOT = -.1881227E-1
MEAN_MOTION_DDOT = 0

CCSDS_OMM_VERS = 2.0
CREATION_DATE  = 
ORIGINATOR     = 

OBJECT_NAME    = STARLINK-36545
OBJECT_ID      = 2026-012N
CENTER_NAME    = EARTH
REF_FRAME      = TEME
TIME_SYSTEM    = UTC
MEAN_ELEMENT_THEORY = SGP/SGP4

EPOCH          = 2026-02-14T12:00:01.999296
MEAN_MOTION    = 15.45328622
ECCENTRICITY   = .000152
INCLINATION    = 43.0005
RA_OF_ASC_NODE = 85.3808
ARG_OF_PERICENTER = 279.9055
MEAN_ANOMALY   = 131.9438

EPHEMERIS_TYPE = 0
CLASSIFICATION_TYPE = U
NORAD_CAT_ID   = 67505
ELEMENT_SET_NO = 999
REV_AT_EPOCH   = 534
BSTAR          = -.41224E-1
MEAN_MOTION_DOT = -.1815301E-1
MEAN_MOTION_DDOT = 0

CCSDS_OMM_VERS = 2.0
CREATION_DATE  = 
ORIGINATOR     = 

OBJECT_NAME    = STARLINK-36553
OBJECT_ID      = 2026-012P
CENTER_NAME    = EARTH
REF_FRAME      = TEME
TIME_SYSTEM    = UTC
MEAN_ELEMENT_THEORY = SGP/SGP4

EPOCH          = 2026-02-14T12:00:01.999296
MEAN_MOTION    = 15.44112499
ECCENTRICITY   = .0001481
INCLINATION    = 43.0000
RA_OF_ASC_NODE = 85.2941
ARG_OF_PERICENTER = 287.1596
MEAN_ANOMALY   = 159.4161

EPHEMERIS_TYPE = 0
CLASSIFICATION_TYPE = U
NORAD_CAT_ID   = 67506
ELEMENT_SET_NO = 999
REV_AT_EPOCH   = 534
BSTAR          = -.43541E-1
MEAN_MOTION_DOT = -.1836395E-1
MEAN_MOTION_DDOT = 0

CCSDS_OMM_VERS = 2.0
CREATION_DATE  = 
ORIGINATOR     = 

OBJECT_NAME    = STARLINK-36521
OBJECT_ID      = 2026-012Q
CENTER_NAME    = EARTH
REF_FRAME      = TEME
TIME_SYSTEM    = UTC
MEAN_ELEMENT_THEORY = SGP/SGP4

EPOCH          = 2026-02-14T12:00:01.999296
MEAN_MOTION    = 15.44599149
ECCENTRICITY   = .0001491
INCLINATION    = 43.0003
RA_OF_ASC_NODE = 85.2773
ARG_OF_PERICENTER = 293.9343
MEAN_ANOMALY   = 159.4363

EPHEMERIS_TYPE = 0
CLASSIFICATION_TYPE = U
NORAD_CAT_ID   = 67507
ELEMENT_SET_NO = 999
REV_AT_EPOCH   = 534
BSTAR          = -.42679E-1
MEAN_MOTION_DOT = -.183097E-1
MEAN_MOTION_DDOT = 0

