STARLINK-36534          
1 67496U 26012D   26045.50002314 -.01761131  00000+0 -46022-1 0  9991
2 67496  43.0010  85.7485 0000602 296.3005 327.0151 15.41119151  5285
STARLINK-36555          
1 67497U 26012E   26045.50002314 -.01841291  00000+0 -48891-1 0  9994
2 67497  43.0001  85.7739 0000946 292.0721 321.2859 15.40784233  5343
STARLINK-36081          
1 67498U 26012F   26045.46648354  .00074005  00000+0  12399-2 0  9993
2 67498  43.0006  86.1289 0009691 299.5166  60.4728 15.50880949  4208
STARLINK-36558          
1 67499U 26012G   26045.40198253  .00131354  00000+0  22314-2 0  9995
2 67499  43.0033  86.5014 0005790 244.1148 115.9116 15.50261505  4197
STARLINK-36557          
1 67500U 26012H   26045.50002314 -.01753069  00000+0 -48873-1 0  9994
2 67500  43.0004  85.5390 0000949 269.5043  78.7040 15.39161655  5342
STARLINK-36433          
1 67501U 26012J   26045.50002314 -.01819782  00000+0 -50278-1 0  9992
2 67501  43.0003  85.4945 0001397 268.9751  96.7505 15.39550623  5347
STARLINK-36554          
1 67502U 26012K   26045.51266404  .00095915  00000+0  17967-2 0  9996
2 67502  42.9999  85.6081 0001580 319.9064  40.1679 15.47647950  4210
STARLINK-36552          
1 67503U 26012L   26045.50002314 -.01866386  00000+0 -49950-1 0  9991
2 67503  43.0012  85.3809 0001579 280.9189 130.4180 15.40587967  5346
STARLINK-36512          
1 67504U 26012M   26045.50002314 -.01881227  00000+0 -43399-1 0  9994
2 67504  43.0011  85.4296 0001383 281.8932 109.9484 15.44987380  5341
STARLINK-36545          
1 67505U 26012N   26045.50002314 -.01815301  00000+0 -41224-1 0  9990
2 67505  43.0005  85.3808 0001520 279.9055 131.9438 15.45328622  5343
STARLINK-36553          
1 67506U 26012P   26045.50002314 -.01836395  00000+0 -43541-1 0  9991
2 67506  43.0000  85.2941 0001481 287.1596 159.4161 15.44112499  5343
STARLINK-36521          
1 67507U 26012Q   26045.50002314 -.01830970  00000+0 -42679-1 0  9996
2 67507  43.0003  85.2773 0001491 293.9343 159.4363 15.44599149  5341
